{
  "type": "FeatureCollection",
  "features": [
    {
      "type": "Feature",
      "properties": {
        "norad_id": 39773,
        "name": "EUTELSAT 3B",
        "group": "eutelsat",
        "lat": -0.023690844271736185,
        "lon": -14.642390055116786,
        "alt_km": 35792.72758090085,
        "timestamp": "2025-12-19T16:54:43.922530+00:00",
        "meta_object_name": "EUTELSAT 3B",
        "meta_object_id": "2014-030A",
        "meta_epoch": "2025-12-19T06:25:51.040704",
        "meta_mean_motion": 1.00272348,
        "meta_eccentricity": 0.00041863,
        "meta_inclination": 0.0607,
        "meta_ra_of_asc_node": 3.7957,
        "meta_arg_of_pericenter": 228.5486,
        "meta_mean_anomaly": 315.3277,
        "meta_ephemeris_type": 0,
        "meta_classification_type": "U",
        "meta_norad_cat_id": 39773,
        "meta_element_set_no": 999,
        "meta_rev_at_epoch": 4226,
        "meta_bstar": 0,
        "meta_mean_motion_dot": 4.5e-07,
        "meta_mean_motion_ddot": 0,
        "tle_line1": "1 39773U 14030A   25353.26795186  .00000045  00000+0  00000+0 0  9996",
        "tle_line2": "2 39773   0.0607   3.7957 0004186 228.5486 315.3277  1.00272348 42268"
      },
      "geometry": {
        "type": "Point",
        "coordinates": [
          -14.642390055116786,
          -0.023690844271736185
        ]
      }
    },
    {
      "type": "Feature",
      "properties": {
        "norad_id": 40425,
        "name": "EUTELSAT 115 WEST B",
        "group": "eutelsat",
        "lat": 0.008333908579411192,
        "lon": -132.68099401940785,
        "alt_km": 35785.801281517546,
        "timestamp": "2025-12-19T16:54:43.922544+00:00",
        "meta_object_name": "EUTELSAT 115 WEST B",
        "meta_object_id": "2015-010B",
        "meta_epoch": "2025-12-19T00:43:56.394912",
        "meta_mean_motion": 1.00271765,
        "meta_eccentricity": 3.937e-05,
        "meta_inclination": 0.0157,
        "meta_ra_of_asc_node": 151.5857,
        "meta_arg_of_pericenter": 156.8592,
        "meta_mean_anomaly": 35.5264,
        "meta_ephemeris_type": 0,
        "meta_classification_type": "U",
        "meta_norad_cat_id": 40425,
        "meta_element_set_no": 999,
        "meta_rev_at_epoch": 3958,
        "meta_bstar": 0,
        "meta_mean_motion_dot": 0,
        "meta_mean_motion_ddot": 0,
        "tle_line1": "1 40425U 15010B   25353.03051383  .00000000  00000+0  00000+0 0  9991",
        "tle_line2": "2 40425   0.0157 151.5857 0000393 156.8592  35.5264  1.00271765 39582"
      },
      "geometry": {
        "type": "Point",
        "coordinates": [
          -132.68099401940785,
          0.008333908579411192
        ]
      }
    },
    {
      "type": "Feature",
      "properties": {
        "norad_id": 40875,
        "name": "EUTELSAT 8 WEST B",
        "group": "eutelsat",
        "lat": -0.03160176257520333,
        "lon": -25.725935271873006,
        "alt_km": 35778.68124473271,
        "timestamp": "2025-12-19T16:54:43.922558+00:00",
        "meta_object_name": "EUTELSAT 8 WEST B",
        "meta_object_id": "2015-039B",
        "meta_epoch": "2025-12-19T06:22:36.351264",
        "meta_mean_motion": 1.00271103,
        "meta_eccentricity": 0.0004248,
        "meta_inclination": 0.0635,
        "meta_ra_of_asc_node": 355.3467,
        "meta_arg_of_pericenter": 273.872,
        "meta_mean_anomaly": 266.5586,
        "meta_ephemeris_type": 0,
        "meta_classification_type": "U",
        "meta_norad_cat_id": 40875,
        "meta_element_set_no": 999,
        "meta_rev_at_epoch": 3785,
        "meta_bstar": 0,
        "meta_mean_motion_dot": -4.1e-07,
        "meta_mean_motion_ddot": 0,
        "tle_line1": "1 40875U 15039B   25353.26569851 -.00000041  00000+0  00000+0 0  9996",
        "tle_line2": "2 40875   0.0635 355.3467 0004248 273.8720 266.5586  1.00271103 37856"
      },
      "geometry": {
        "type": "Point",
        "coordinates": [
          -25.725935271873006,
          -0.03160176257520333
        ]
      }
    },
    {
      "type": "Feature",
      "properties": {
        "norad_id": 41310,
        "name": "EUTELSAT 9B",
        "group": "eutelsat",
        "lat": -0.056824842649756194,
        "lon": -8.73646718305348,
        "alt_km": 35781.53852428917,
        "timestamp": "2025-12-19T16:54:43.922571+00:00",
        "meta_object_name": "EUTELSAT 9B",
        "meta_object_id": "2016-005A",
        "meta_epoch": "2025-12-19T06:27:28.384992",
        "meta_mean_motion": 1.00272349,
        "meta_eccentricity": 0.00044589,
        "meta_inclination": 0.0599,
        "meta_ra_of_asc_node": 70.7944,
        "meta_arg_of_pericenter": 203.8674,
        "meta_mean_anomaly": 279.3171,
        "meta_ephemeris_type": 0,
        "meta_classification_type": "U",
        "meta_norad_cat_id": 41310,
        "meta_element_set_no": 999,
        "meta_rev_at_epoch": 3631,
        "meta_bstar": 0,
        "meta_mean_motion_dot": 8.6e-07,
        "meta_mean_motion_ddot": 0,
        "tle_line1": "1 41310U 16005A   25353.26907853  .00000086  00000+0  00000+0 0  9991",
        "tle_line2": "2 41310   0.0599  70.7944 0004458 203.8674 279.3171  1.00272349 36317"
      },
      "geometry": {
        "type": "Point",
        "coordinates": [
          -8.73646718305348,
          -0.056824842649756194
        ]
      }
    },
    {
      "type": "Feature",
      "properties": {
        "norad_id": 41382,
        "name": "EUTELSAT 65 WEST A",
        "group": "eutelsat",
        "lat": -0.06735075583873823,
        "lon": -83.0060306503605,
        "alt_km": 35777.00776552518,
        "timestamp": "2025-12-19T16:54:43.922589+00:00",
        "meta_object_name": "EUTELSAT 65 WEST A",
        "meta_object_id": "2016-014A",
        "meta_epoch": "2025-12-19T01:22:21.667872",
        "meta_mean_motion": 1.00269562,
        "meta_eccentricity": 0.00023081,
        "meta_inclination": 0.0547,
        "meta_ra_of_asc_node": 329.1054,
        "meta_arg_of_pericenter": 309.1269,
        "meta_mean_anomaly": 125.0474,
        "meta_ephemeris_type": 0,
        "meta_classification_type": "U",
        "meta_norad_cat_id": 41382,
        "meta_element_set_no": 999,
        "meta_rev_at_epoch": 3572,
        "meta_bstar": 0,
        "meta_mean_motion_dot": -2.51e-06,
        "meta_mean_motion_ddot": 0,
        "tle_line1": "1 41382U 16014A   25353.05719523 -.00000251  00000+0  00000+0 0  9997",
        "tle_line2": "2 41382   0.0547 329.1054 0002308 309.1269 125.0474  1.00269562 35724"
      },
      "geometry": {
        "type": "Point",
        "coordinates": [
          -83.0060306503605,
          -0.06735075583873823
        ]
      }
    },
    {
      "type": "Feature",
      "properties": {
        "norad_id": 41589,
        "name": "EUTELSAT 117 WEST B",
        "group": "eutelsat",
        "lat": 0.009224589325768518,
        "lon": -134.76800427613466,
        "alt_km": 35785.106503614814,
        "timestamp": "2025-12-19T16:54:43.922602+00:00",
        "meta_object_name": "EUTELSAT 117 WEST B",
        "meta_object_id": "2016-038B",
        "meta_epoch": "2025-12-19T00:43:26.441760",
        "meta_mean_motion": 1.00272207,
        "meta_eccentricity": 4.142e-05,
        "meta_inclination": 0.0149,
        "meta_ra_of_asc_node": 154.1508,
        "meta_arg_of_pericenter": 133.0163,
        "meta_mean_anomaly": 54.5907,
        "meta_ephemeris_type": 0,
        "meta_classification_type": "U",
        "meta_norad_cat_id": 41589,
        "meta_element_set_no": 999,
        "meta_rev_at_epoch": 3485,
        "meta_bstar": 0,
        "meta_mean_motion_dot": 1.3e-07,
        "meta_mean_motion_ddot": 0,
        "tle_line1": "1 41589U 16038B   25353.03016715  .00000013  00000+0  00000+0 0  9998",
        "tle_line2": "2 41589   0.0149 154.1508 0000414 133.0163  54.5907  1.00272207 34854"
      },
      "geometry": {
        "type": "Point",
        "coordinates": [
          -134.76800427613466,
          0.009224589325768518
        ]
      }
    },
    {
      "type": "Feature",
      "properties": {
        "norad_id": 42741,
        "name": "EUTELSAT 172B",
        "group": "eutelsat",
        "lat": 0.02186506240892521,
        "lon": 154.22085844914167,
        "alt_km": 35785.680867986324,
        "timestamp": "2025-12-19T16:54:43.922614+00:00",
        "meta_object_name": "EUTELSAT 172B",
        "meta_object_id": "2017-029B",
        "meta_epoch": "2025-12-19T05:31:18.765120",
        "meta_mean_motion": 1.00272484,
        "meta_eccentricity": 2.305e-05,
        "meta_inclination": 0.0445,
        "meta_ra_of_asc_node": 135.9638,
        "meta_arg_of_pericenter": 298.9709,
        "meta_mean_anomaly": 267.9701,
        "meta_ephemeris_type": 0,
        "meta_classification_type": "U",
        "meta_norad_cat_id": 42741,
        "meta_element_set_no": 999,
        "meta_rev_at_epoch": 3192,
        "meta_bstar": 0,
        "meta_mean_motion_dot": 1.9e-07,
        "meta_mean_motion_ddot": 0,
        "tle_line1": "1 42741U 17029B   25353.23007830  .00000019  00000+0  00000+0 0  9996",
        "tle_line2": "2 42741   0.0445 135.9638 0000230 298.9709 267.9701  1.00272484 31922"
      },
      "geometry": {
        "type": "Point",
        "coordinates": [
          154.22085844914167,
          0.02186506240892521
        ]
      }
    }
  ]
}